start=new Date('2023-06-18T00:00:00.000Z').valueOf();
sats=[{"TLE_LINE1":"1 53480U 22099R   23168.78942209 -.00000599  00000-0 -42053-4 0  9996","OBJECT_NAME":"STARLINK-4442","TIME_SYSTEM":"UTC","GP_ID":"234171924","COUNTRY_CODE":"US","LAUNCH_DATE":"2022-08-12","MEAN_MOTION_DDOT":"0.0000000000000","EPHEMERIS_TYPE":"0","OBJECT_ID":"2022-099R","RA_OF_ASC_NODE":"289.8636","SEMIMAJOR_AXIS":"6941.147","ELEMENT_SET_NO":"999","RCS_SIZE":"LARGE","DECAY_DATE":null,"PERIAPSIS":"562.342","REF_FRAME":"TEME","ECCENTRICITY":"0.00009650","MEAN_ELEMENT_THEORY":"SGP4","MEAN_MOTION":"15.01260094","SITE":"AFWTR","CLASSIFICATION_TYPE":"U","MEAN_ANOMALY":"250.3121","REV_AT_EPOCH":"4656","FILE":"3935891","INCLINATION":"97.6551","EPOCH":"2023-06-17T18:56:46.068576","CENTER_NAME":"EARTH","APOAPSIS":"563.681","PERIOD":"95.919","NORAD_CAT_ID":"53480","BSTAR":"-0.00004205300000","OBJECT_TYPE":"PAYLOAD","TLE_LINE2":"2 53480  97.6551 289.8636 0000965 109.8207 250.3121 15.01260094 46567","MEAN_MOTION_DOT":"-0.00000599","ARG_OF_PERICENTER":"109.8207"},{"SEMIMAJOR_AXIS":"6941.141","RA_OF_ASC_NODE":"289.6586","OBJECT_ID":"2022-099S","ELEMENT_SET_NO":"999","DECAY_DATE":null,"RCS_SIZE":"LARGE","PERIAPSIS":"562.425","REF_FRAME":"TEME","TLE_LINE1":"1 53481U 22099S   23168.58390314  .00000116  00000-0  13643-4 0  9995","OBJECT_NAME":"STARLINK-4302","TIME_SYSTEM":"UTC","GP_ID":"234139093","COUNTRY_CODE":"US","LAUNCH_DATE":"2022-08-12","EPHEMERIS_TYPE":"0","MEAN_MOTION_DDOT":"0.0000000000000","PERIOD":"95.919","BSTAR":"0.00001364300000","NORAD_CAT_ID":"53481","OBJECT_TYPE":"PAYLOAD","TLE_LINE2":"2 53481  97.6532 289.6586 0000836 230.3833 129.7318 15.01262049 46537","MEAN_MOTION_DOT":"0.00000116","ARG_OF_PERICENTER":"230.3833","ECCENTRICITY":"0.00008360","MEAN_ELEMENT_THEORY":"SGP4","MEAN_MOTION":"15.01262049","SITE":"AFWTR","CLASSIFICATION_TYPE":"U","MEAN_ANOMALY":"129.7318","REV_AT_EPOCH":"4653","CENTER_NAME":"EARTH","EPOCH":"2023-06-17T14:00:49.231296","FILE":"3935591","INCLINATION":"97.6532","APOAPSIS":"563.586"},{"PERIAPSIS":"562.614","REF_FRAME":"TEME","RA_OF_ASC_NODE":"289.8660","OBJECT_ID":"2022-099T","SEMIMAJOR_AXIS":"6941.145","RCS_SIZE":"LARGE","DECAY_DATE":null,"ELEMENT_SET_NO":"999","COUNTRY_CODE":"US","GP_ID":"234173426","MEAN_MOTION_DDOT":"0.0000000000000","EPHEMERIS_TYPE":"0","LAUNCH_DATE":"2022-08-12","TLE_LINE1":"1 53482U 22099T   23168.77275289 -.00000220  00000-0 -12535-4 0  9997","TIME_SYSTEM":"UTC","OBJECT_NAME":"STARLINK-4360","OBJECT_TYPE":"PAYLOAD","NORAD_CAT_ID":"53482","BSTAR":"-0.00001253500000","ARG_OF_PERICENTER":"106.6835","TLE_LINE2":"2 53482  97.6532 289.8660 0000571 106.6835 253.4452 15.01260537 46563","MEAN_MOTION_DOT":"-0.00000220","PERIOD":"95.919","REV_AT_EPOCH":"4656","MEAN_ANOMALY":"253.4452","CLASSIFICATION_TYPE":"U","APOAPSIS":"563.407","INCLINATION":"97.6532","FILE":"3935891","EPOCH":"2023-06-17T18:32:45.849696","CENTER_NAME":"EARTH","ECCENTRICITY":"0.00005710","SITE":"AFWTR","MEAN_MOTION":"15.01260537","MEAN_ELEMENT_THEORY":"SGP4"},{"OBJECT_TYPE":"PAYLOAD","BSTAR":"0.00003682800000","NORAD_CAT_ID":"53483","ARG_OF_PERICENTER":"181.6940","TLE_LINE2":"2 53483  97.6537 289.6572 0000396 181.6940 178.4282 15.01265710 46536","MEAN_MOTION_DOT":"0.00000414","PERIOD":"95.919","REV_AT_EPOCH":"4653","CLASSIFICATION_TYPE":"U","MEAN_ANOMALY":"178.4282","APOAPSIS":"563.269","EPOCH":"2023-06-17T13:42:09.124416","CENTER_NAME":"EARTH","INCLINATION":"97.6537","FILE":"3935591","ECCENTRICITY":"0.00003960","SITE":"AFWTR","MEAN_MOTION":"15.01265710","MEAN_ELEMENT_THEORY":"SGP4","PERIAPSIS":"562.719","REF_FRAME":"TEME","SEMIMAJOR_AXIS":"6941.129","RA_OF_ASC_NODE":"289.6572","OBJECT_ID":"2022-099U","DECAY_DATE":null,"RCS_SIZE":"LARGE","ELEMENT_SET_NO":"999","COUNTRY_CODE":"US","GP_ID":"234138093","EPHEMERIS_TYPE":"0","MEAN_MOTION_DDOT":"0.0000000000000","LAUNCH_DATE":"2022-08-12","TLE_LINE1":"1 53483U 22099U   23168.57093894  .00000414  00000-0  36828-4 0  9990","TIME_SYSTEM":"UTC","OBJECT_NAME":"STARLINK-4401"},{"DECAY_DATE":null,"RCS_SIZE":"LARGE","ELEMENT_SET_NO":"999","SEMIMAJOR_AXIS":"6941.127","RA_OF_ASC_NODE":"289.6549","OBJECT_ID":"2022-099V","REF_FRAME":"TEME","PERIAPSIS":"561.788","TIME_SYSTEM":"UTC","OBJECT_NAME":"STARLINK-4426","TLE_LINE1":"1 53484U 22099V   23168.58204699  .00001038  00000-0  85420-4 0  9994","EPHEMERIS_TYPE":"0","MEAN_MOTION_DDOT":"0.0000000000000","LAUNCH_DATE":"2022-08-12","COUNTRY_CODE":"US","GP_ID":"234138343","PERIOD":"95.919","ARG_OF_PERICENTER":"232.4953","MEAN_MOTION_DOT":"0.00001038","TLE_LINE2":"2 53484  97.6527 289.6549 0001734 232.4953 127.6114 15.01266485 46536","OBJECT_TYPE":"PAYLOAD","BSTAR":"0.00008542000000","NORAD_CAT_ID":"53484","SITE":"AFWTR","MEAN_MOTION":"15.01266485","MEAN_ELEMENT_THEORY":"SGP4","ECCENTRICITY":"0.00017340","APOAPSIS":"564.195","EPOCH":"2023-06-17T13:58:08.859936","CENTER_NAME":"EARTH","FILE":"3935591","INCLINATION":"97.6527","REV_AT_EPOCH":"4653","CLASSIFICATION_TYPE":"U","MEAN_ANOMALY":"127.6114"},{"PERIOD":"95.919","ARG_OF_PERICENTER":"221.9284","MEAN_MOTION_DOT":"0.00000353","TLE_LINE2":"2 53485  97.6543 289.6424 0003922 221.9284 138.1640 15.01265196 46537","OBJECT_TYPE":"PAYLOAD","BSTAR":"0.00003209800000","NORAD_CAT_ID":"53485","SITE":"AFWTR","MEAN_MOTION":"15.01265196","MEAN_ELEMENT_THEORY":"SGP4","ECCENTRICITY":"0.00039220","APOAPSIS":"565.718","EPOCH":"2023-06-17T13:50:08.750688","CENTER_NAME":"EARTH","INCLINATION":"97.6543","FILE":"3935591","REV_AT_EPOCH":"4653","CLASSIFICATION_TYPE":"U","MEAN_ANOMALY":"138.1640","DECAY_DATE":null,"RCS_SIZE":"LARGE","ELEMENT_SET_NO":"999","SEMIMAJOR_AXIS":"6941.131","OBJECT_ID":"2022-099W","RA_OF_ASC_NODE":"289.6424","REF_FRAME":"TEME","PERIAPSIS":"560.274","TIME_SYSTEM":"UTC","OBJECT_NAME":"STARLINK-4430","TLE_LINE1":"1 53485U 22099W   23168.57649017  .00000353  00000-0  32098-4 0  9993","EPHEMERIS_TYPE":"0","MEAN_MOTION_DDOT":"0.0000000000000","LAUNCH_DATE":"2022-08-12","COUNTRY_CODE":"US","GP_ID":"234138593"},{"ECCENTRICITY":"0.00025840","SITE":"AFWTR","MEAN_MOTION":"15.01258545","MEAN_ELEMENT_THEORY":"SGP4","REV_AT_EPOCH":"4656","CLASSIFICATION_TYPE":"U","MEAN_ANOMALY":"132.2292","APOAPSIS":"564.810","FILE":"3935891","INCLINATION":"97.6524","EPOCH":"2023-06-17T18:43:25.717728","CENTER_NAME":"EARTH","PERIOD":"95.920","OBJECT_TYPE":"PAYLOAD","NORAD_CAT_ID":"53486","BSTAR":"-0.00004389600000","ARG_OF_PERICENTER":"227.8713","TLE_LINE2":"2 53486  97.6524 289.8481 0002584 227.8713 132.2292 15.01258545 46568","MEAN_MOTION_DOT":"-0.00000623","TLE_LINE1":"1 53486U 22099X   23168.78015877 -.00000623  00000-0 -43896-4 0  9998","TIME_SYSTEM":"UTC","OBJECT_NAME":"STARLINK-4431","COUNTRY_CODE":"US","GP_ID":"234172927","MEAN_MOTION_DDOT":"0.0000000000000","EPHEMERIS_TYPE":"0","LAUNCH_DATE":"2022-08-12","RA_OF_ASC_NODE":"289.8481","OBJECT_ID":"2022-099X","SEMIMAJOR_AXIS":"6941.151","RCS_SIZE":"LARGE","DECAY_DATE":null,"ELEMENT_SET_NO":"999","PERIAPSIS":"561.223","REF_FRAME":"TEME"},{"OBJECT_NAME":"STARLINK-4432","TIME_SYSTEM":"UTC","TLE_LINE1":"1 53487U 22099Y   23168.77597970 -.00000375  00000-0 -25192-4 0  9990","LAUNCH_DATE":"2022-08-12","MEAN_MOTION_DDOT":"0.0000000000000","EPHEMERIS_TYPE":"0","GP_ID":"234171675","COUNTRY_CODE":"US","ELEMENT_SET_NO":"999","RCS_SIZE":"LARGE","DECAY_DATE":null,"OBJECT_ID":"2022-099Y","RA_OF_ASC_NODE":"289.8284","SEMIMAJOR_AXIS":"6943.643","REF_FRAME":"TEME","PERIAPSIS":"564.985","MEAN_ELEMENT_THEORY":"SGP4","MEAN_MOTION":"15.00450529","SITE":"AFWTR","ECCENTRICITY":"0.00007540","FILE":"3935891","INCLINATION":"97.6548","EPOCH":"2023-06-17T18:37:24.646080","CENTER_NAME":"EARTH","APOAPSIS":"566.032","MEAN_ANOMALY":"133.3808","CLASSIFICATION_TYPE":"U","REV_AT_EPOCH":"4656","PERIOD":"95.971","MEAN_MOTION_DOT":"-0.00000375","TLE_LINE2":"2 53487  97.6548 289.8284 0000754 226.7353 133.3808 15.00450529 46561","ARG_OF_PERICENTER":"226.7353","NORAD_CAT_ID":"53487","BSTAR":"-0.00002519200000","OBJECT_TYPE":"PAYLOAD"},{"PERIOD":"95.919","ARG_OF_PERICENTER":"226.2080","TLE_LINE2":"2 53488  97.6534 289.6472 0002978 226.2080 133.8898 15.01265359 46533","MEAN_MOTION_DOT":"0.00000537","OBJECT_TYPE":"PAYLOAD","BSTAR":"0.00004637000000","NORAD_CAT_ID":"53488","MEAN_MOTION":"15.01265359","SITE":"AFWTR","MEAN_ELEMENT_THEORY":"SGP4","ECCENTRICITY":"0.00029780","APOAPSIS":"565.062","EPOCH":"2023-06-17T13:52:48.835200","CENTER_NAME":"EARTH","INCLINATION":"97.6534","FILE":"3935591","REV_AT_EPOCH":"4653","CLASSIFICATION_TYPE":"U","MEAN_ANOMALY":"133.8898","DECAY_DATE":null,"RCS_SIZE":"LARGE","ELEMENT_SET_NO":"999","SEMIMAJOR_AXIS":"6941.130","OBJECT_ID":"2022-099Z","RA_OF_ASC_NODE":"289.6472","REF_FRAME":"TEME","PERIAPSIS":"560.928","TIME_SYSTEM":"UTC","OBJECT_NAME":"STARLINK-4421","TLE_LINE1":"1 53488U 22099Z   23168.57834300  .00000537  00000-0  46370-4 0  9999","EPHEMERIS_TYPE":"0","MEAN_MOTION_DDOT":"0.0000000000000","LAUNCH_DATE":"2022-08-12","COUNTRY_CODE":"US","GP_ID":"234137843"},{"ECCENTRICITY":"0.00013210","MEAN_ELEMENT_THEORY":"SGP4","MEAN_MOTION":"15.00453494","SITE":"AFWTR","MEAN_ANOMALY":"127.4593","CLASSIFICATION_TYPE":"U","REV_AT_EPOCH":"4657","EPOCH":"2023-06-17T20:16:32.744352","CENTER_NAME":"EARTH","FILE":"3935891","INCLINATION":"97.6550","APOAPSIS":"566.416","PERIOD":"95.971","BSTAR":"0.00001018000000","NORAD_CAT_ID":"53489","OBJECT_TYPE":"PAYLOAD","TLE_LINE2":"2 53489  97.6550 289.8859 0001321 232.6510 127.4593 15.00453494 46576","MEAN_MOTION_DOT":"0.00000069","ARG_OF_PERICENTER":"232.6510","TLE_LINE1":"1 53489U 22099AA  23168.84482343  .00000069  00000-0  10180-4 0  9996","OBJECT_NAME":"STARLINK-4392","TIME_SYSTEM":"UTC","GP_ID":"234172677","COUNTRY_CODE":"US","LAUNCH_DATE":"2022-08-12","EPHEMERIS_TYPE":"0","MEAN_MOTION_DDOT":"0.0000000000000","SEMIMAJOR_AXIS":"6943.634","OBJECT_ID":"2022-099AA","RA_OF_ASC_NODE":"289.8859","ELEMENT_SET_NO":"999","DECAY_DATE":null,"RCS_SIZE":"LARGE","PERIAPSIS":"564.582","REF_FRAME":"TEME"}];
